{"spkid": "20307005", "covariance": {"epoch": "2453445.5", "data": [["7.637948572772901E-15", "-2.231796308400811E-14", "1.064501342224249E-12", "-4.524543534222218E-13", "2.583362620225854E-12", "9.943861947129218E-13"], ["-2.231796308400811E-14", "6.525405522253787E-14", "-3.133427841182815E-12", "1.328311734178877E-12", "-7.565947797817866E-12", "-2.92248188958089E-12"], ["1.064501342224249E-12", "-3.133427841182815E-12", "5.953864916177727E-10", "-2.070994137606353E-10", "6.045629954239962E-10", "4.299650421228776E-10"], ["-4.524543534222218E-13", "1.328311734178877E-12", "-2.070994137606353E-10", "5.00378143702126E-10", "-5.208714214926357E-10", "-8.649213965506076E-10"], ["2.583362620225854E-12", "-7.565947797817866E-12", "6.045629954239962E-10", "-5.208714214926357E-10", "1.316698012378036E-9", "9.720207243392776E-10"], ["9.943861947129218E-13", "-2.92248188958089E-12", "4.299650421228776E-10", "-8.649213965506076E-10", "9.720207243392776E-10", "2.118503215328592E-9"]], "elements": [{"label": "e", "name": "e", "sigma": 8.73953578445268e-08, "value": ".7505981473815075", "title": "eccentricity", "units": null}, {"label": "q", "value": ".7220483085842919", "title": "perihelion distance", "units": "au", "sigma": 2.55448733061133e-07, "name": "q"}, {"label": "tp", "title": "time of perihelion passage", "value": "2454139.588844270788", "units": "TDB", "sigma": 2.44005428549812e-05, "name": "tp"}, {"name": "om", "sigma": 2.23691337271278e-05, "title": "longitude of the ascending node", "value": "268.55752302062", "units": "deg", "label": "node"}, {"label": "peri", "name": "w", "sigma": 3.62863336860868e-05, "title": "argument of perihelion", "value": "246.1787648410793", "units": "deg"}, {"name": "i", "sigma": 4.60272008200433e-05, "units": "deg", "title": "inclination", "value": "39.27772399809231", "label": "i"}], "labels": ["e", "q", "tp", "node", "peri", "i"]}, "elements": [{"units": null, "title": "eccentricity", "value": ".753196375534697", "name": "e", "sigma": "8.3308E-8", "label": "e"}, {"label": "a", "name": "a", "sigma": "2.6014E-8", "value": "2.889804898315709", "title": "semi-major axis", "units": "au"}, {"title": "perihelion distance", "value": ".7132143229019033", "units": "au", "name": "q", "sigma": "2.4207E-7", "label": "q"}, {"name": "i", "sigma": "4.6288E-5", "units": "deg", "value": "39.21258023685895", "title": "inclination; angle with respect to x-y ecliptic plane", "label": "i"}, {"value": "268.05494482", "title": "longitude of the ascending node", "units": "deg", "name": "om", "sigma": "2.1209E-5", "label": "node"}, {"label": "peri", "sigma": "3.555E-5", "name": "w", "units": "deg", "title": "argument of perihelion", "value": "246.3308935889425"}, {"title": "mean anomaly", "value": "335.842652594959", "units": "deg", "name": "ma", "sigma": "1.9613E-5", "label": "M"}, {"units": "TDB", "title": "time of perihelion passage", "value": "2461320.905951860770", "name": "tp", "sigma": "9.9353E-5", "label": "tp"}, {"units": "d", "value": "1794.32542584671", "title": "sidereal orbital period", "sigma": "2.4228E-5", "name": "per", "label": "period"}, {"units": "deg/d", "title": "mean motion", "value": ".2006325022285868", "name": "n", "sigma": "2.7091E-9", "label": "n"}, {"label": "Q", "title": "aphelion distance", "value": "5.066395473729514", "units": "au", "sigma": "4.5607E-8", "name": "ad"}], "epoch": "2461200.5"}